[{"OBJECT_NAME":"STARLINK-3107","OBJECT_ID":"2021-082AT","EPOCH":"2026-03-09T21:59:27.140640","MEAN_MOTION":15.10504087,"ECCENTRICITY":0.00073375,"INCLINATION":69.9932,"RA_OF_ASC_NODE":287.3824,"ARG_OF_PERICENTER":250.2407,"MEAN_ANOMALY":109.7967,"EPHEMERIS_TYPE":0,"CLASSIFICATION_TYPE":"U","NORAD_CAT_ID":49171,"ELEMENT_SET_NO":999,"REV_AT_EPOCH":24733,"BSTAR":0.001517345,"MEAN_MOTION_DOT":0.00025048,"MEAN_MOTION_DDOT":0},{"OBJECT_NAME":"STARLINK-4106","OBJECT_ID":"2022-083P","EPOCH":"2026-03-09T13:37:50.987136","MEAN_MOTION":15.08843282,"ECCENTRICITY":8.56e-5,"INCLINATION":53.2174,"RA_OF_ASC_NODE":174.6673,"ARG_OF_PERICENTER":99.2059,"MEAN_ANOMALY":260.903,"EPHEMERIS_TYPE":0,"CLASSIFICATION_TYPE":"U","NORAD_CAT_ID":53145,"ELEMENT_SET_NO":999,"REV_AT_EPOCH":20120,"BSTAR":-7.4863e-5,"MEAN_MOTION_DOT":-1.479e-5,"MEAN_MOTION_DDOT":0}]
